STARLINK-5656           
1 55451U 23015C   26171.25355266 -.00000410  00000+0 -53698-5 0  9994
2 55451  43.0009 109.8614 0001005 337.9848  22.0960 15.27576331186403
STARLINK-5683           
1 55452U 23015D   26171.26125612  .00000173  00000+0  15798-4 0  9998
2 55452  43.0024 109.9070 0000880 266.9122  93.1629 15.27574805186409
STARLINK-5684           
1 55453U 23015E   26170.88549474 -.00000087  00000+0  63800-5 0  9995
2 55453  43.0052 111.3986 0001456 276.9489  83.1197 15.27577539186351
STARLINK-5636           
1 55454U 23015F   26171.22270086  .00000732  00000+0  36117-4 0  9991
2 55454  43.0066 109.6219 0001604 279.2813  80.7857 15.27581777186409
STARLINK-5680           
1 55455U 23015G   26171.19201611 -.00000024  00000+0  86618-5 0  9993
2 55455  43.0023 110.2550 0000767 237.8249 122.2529 15.27576060186396
STARLINK-5058           
1 55456U 23015H   26170.17395217 -.00001458  00000+0 -43459-4 0  9995
2 55456  43.0064 115.5167 0001583 266.4611  93.6060 15.27569133186240
STARLINK-5682           
1 55457U 23015J   26171.15089528 -.00001844  00000+0 -57497-4 0  9996
2 55457  43.0061 109.9504 0001426 273.2739  86.7949 15.27581518186399
STARLINK-5020           
1 55458U 23015K   26171.17274278  .00000564  00000+0  30003-4 0  9997
2 55458  43.0024 110.1069 0001405 264.5090  95.5601 15.27580552186399
STARLINK-5669           
1 55459U 23015L   26171.23043974 -.00001648  00000+0 -50395-4 0  9994
2 55459  43.0022 109.6889 0001729 259.8546 100.2111 15.27559922186402
STARLINK-5678           
1 55460U 23015M   26171.23426961 -.00000043  00000+0  79697-5 0  9991
2 55460  43.0046 109.7113 0001635 265.9652  94.1013 15.27576493186407
STARLINK-5646           
1 55461U 23015N   26171.16117635  .00000320  00000+0  21155-4 0  9991
2 55461  43.0049 110.0252 0001721 268.8088  91.2566 15.27575230186398
STARLINK-5673           
1 55462U 23015P   26171.20985340  .00000055  00000+0  11539-4 0  9993
2 55462  43.0060 109.5238 0001510 270.1943  89.8735 15.27576583186406
STARLINK-5677           
1 55463U 23015Q   26171.28180920  .00018954  00000+0  92831-3 0  9993
2 55463  42.9989 117.7470 0003523 163.3176 196.7789 15.17838633186314
STARLINK-5676           
1 55464U 23015R   26171.22397712  .00003107  00000+0  12233-3 0  9999
2 55464  43.0044 109.6321 0002170 287.2903  72.7711 15.27597631186404
STARLINK-5674           
1 55465U 23015S   26171.21371145  .00000031  00000+0  10668-4 0  9995
2 55465  43.0056 109.5559 0001499 270.7831  89.2848 15.27575188186407
STARLINK-5628           
1 55466U 23015T   26171.17016315 -.00010872  00000+0 -38555-3 0  9996
2 55466  43.0025 110.0857 0002970 256.5313 103.5208 15.27622337186391
STARLINK-5679           
1 55467U 23015U   26171.20600356 -.00001243  00000+0 -35660-4 0  9992
2 55467  43.0033 109.4956 0001053 258.4798 101.5935 15.27579950186401
STARLINK-5672           
1 55468U 23015V   26171.16246034 -.00000044  00000+0  79371-5 0  9992
2 55468  43.0040 110.0297 0001576 267.6772  92.3899 15.27575445186399
STARLINK-5681           
1 55469U 23015W   26171.15217693  .00000488  00000+0  27278-4 0  9990
2 55469  43.0053 109.9550 0001465 276.3380  83.7304 15.27577202186390
STARLINK-5708           
1 55470U 23015X   26171.23170121 -.00000150  00000+0  40828-5 0  9999
2 55470  43.0044 109.6888 0001659 261.3571  98.7093 15.27576228186404
STARLINK-5711           
1 55471U 23015Y   26171.20856922  .00000160  00000+0  15323-4 0  9998
2 55471  43.0060 109.5090 0001078 280.1035  79.9695 15.27576815186407
STARLINK-5705           
1 55472U 23015Z   26171.16855182  .00000355  00000+0  22428-4 0  9991
2 55472  43.0021 103.0421 0000942 264.5216  95.5528 15.27576087186475
STARLINK-5689           
1 55474U 23015AB  26171.23042297 -.00000965  00000+0 -25586-4 0  9993
2 55474  42.9996 120.9690 0000498 244.1887 115.8913 15.27565139186274
STARLINK-5650           
1 55475U 23015AC  26171.23941235 -.00000089  00000+0  62932-5 0  9997
2 55475  43.0026 109.7430 0001405 265.8276  94.2415 15.27575396186407
STARLINK-5685           
1 55477U 23015AE  26170.99408550  .00000664  00000+0  33657-4 0  9998
2 55477  43.0047 103.4572 0001229 275.3940  84.6772 15.27578278186454
STARLINK-5691           
1 55478U 23015AF  26171.14976442  .00000575  00000+0  30424-4 0  9997
2 55478  43.0012  99.4828 0001328 265.8919  94.1781 15.27577393186515
STARLINK-5688           
1 55479U 23015AG  26171.21980647  .00000191  00000+0  16491-4 0  9990
2 55479  43.0047 102.5640 0001508 267.1341  92.9338 15.27569908186489
STARLINK-5690           
1 55480U 23015AH  26171.26236853  .00000239  00000+0  18199-4 0  9990
2 55480  43.0022 120.2726 0001392 267.5083  92.5610 15.27576057186284
STARLINK-5694           
1 55481U 23015AJ  26171.21498817 -.00000399  00000+0 -49969-5 0  9995
2 55481  43.0003 120.8611 0000850 259.9329 100.1426 15.27585181186277
STARLINK-5692           
1 55483U 23015AL  26171.19314157  .00001329  00000+0  57823-4 0  9997
2 55483  43.0042 120.6960 0001651 260.4905  99.5760 15.27584816186270
