OBJECT_NAME,OBJECT_ID,EPOCH,MEAN_MOTION,ECCENTRICITY,INCLINATION,RA_OF_ASC_NODE,ARG_OF_PERICENTER,MEAN_ANOMALY,EPHEMERIS_TYPE,CLASSIFICATION_TYPE,NORAD_CAT_ID,ELEMENT_SET_NO,REV_AT_EPOCH,BSTAR,MEAN_MOTION_DOT,MEAN_MOTION_DDOT
STARLINK-5656,2023-015C,2026-06-20T06:05:06.949824,15.27576331,.00010053,43.0009,109.8614,337.9848,22.0960,0,U,55451,999,18640,-.5369799E-5,-.41E-5,0
STARLINK-5683,2023-015D,2026-06-20T06:16:12.528768,15.27574805,.00008809,43.0024,109.9070,266.9122,93.1629,0,U,55452,999,18640,.15798484E-4,.173E-5,0
STARLINK-5684,2023-015E,2026-06-19T21:15:06.745536,15.27577539,.00014565,43.0052,111.3986,276.9489,83.1197,0,U,55453,999,18635,.6380023E-5,-.87E-6,0
STARLINK-5636,2023-015F,2026-06-20T05:20:41.354304,15.27581777,.00016045,43.0066,109.6219,279.2813,80.7857,0,U,55454,999,18640,.36116951E-4,.732E-5,0
STARLINK-5680,2023-015G,2026-06-20T04:36:30.191904,15.27576060,.00007673,43.0023,110.2550,237.8249,122.2529,0,U,55455,999,18639,.8661766E-5,-.24E-6,0
STARLINK-5058,2023-015H,2026-06-19T04:10:29.467488,15.27569133,.00015832,43.0064,115.5167,266.4611,93.6060,0,U,55456,999,18624,-.43459019E-4,-.1458E-4,0
STARLINK-5682,2023-015J,2026-06-20T03:37:17.352192,15.27581518,.00014263,43.0061,109.9504,273.2739,86.7949,0,U,55457,999,18639,-.57497335E-4,-.1844E-4,0
STARLINK-5020,2023-015K,2026-06-20T04:08:44.976192,15.27580552,.00014056,43.0024,110.1069,264.5090,95.5601,0,U,55458,999,18639,.30003316E-4,.564E-5,0
STARLINK-5669,2023-015L,2026-06-20T05:31:49.993536,15.27559922,.00017299,43.0022,109.6889,259.8546,100.2111,0,U,55459,999,18640,-.50394598E-4,-.1648E-4,0
STARLINK-5678,2023-015M,2026-06-20T05:37:20.894304,15.27576493,.00016351,43.0046,109.7113,265.9652,94.1013,0,U,55460,999,18640,.796967E-5,-.43E-6,0
STARLINK-5646,2023-015N,2026-06-20T03:52:05.636640,15.27575230,.00017216,43.0049,110.0252,268.8088,91.2566,0,U,55461,999,18639,.21155193E-4,.32E-5,0
STARLINK-5673,2023-015P,2026-06-20T05:02:11.333760,15.27576583,.00015109,43.0060,109.5238,270.1943,89.8735,0,U,55462,999,18640,.11539116E-4,.55E-6,0
STARLINK-5677,2023-015Q,2026-06-20T06:45:48.314880,15.17838633,.00035237,42.9989,117.7470,163.3176,196.7789,0,U,55463,999,18631,.92831034E-3,.18954E-3,0
STARLINK-5676,2023-015R,2026-06-20T05:22:31.623168,15.27597631,.00021702,43.0044,109.6321,287.2903,72.7711,0,U,55464,999,18640,.12232943E-3,.3107E-4,0
STARLINK-5674,2023-015S,2026-06-20T05:07:44.669280,15.27575188,.00014994,43.0056,109.5559,270.7831,89.2848,0,U,55465,999,18640,.10667993E-4,.31E-6,0
STARLINK-5628,2023-015T,2026-06-20T04:05:02.096160,15.27622337,.00029703,43.0025,110.0857,256.5313,103.5208,0,U,55466,999,18639,-.38555092E-3,-.10872E-3,0
STARLINK-5679,2023-015U,2026-06-20T04:56:38.707584,15.27579950,.00010537,43.0033,109.4956,258.4798,101.5935,0,U,55467,999,18640,-.35659977E-4,-.1243E-4,0
STARLINK-5672,2023-015V,2026-06-20T03:53:56.573376,15.27575445,.00015768,43.0040,110.0297,267.6772,92.3899,0,U,55468,999,18639,.7937094E-5,-.44E-6,0
STARLINK-5681,2023-015W,2026-06-20T03:39:08.086752,15.27577202,.00014654,43.0053,109.9550,276.3380,83.7304,0,U,55469,999,18639,.27278456E-4,.488E-5,0
STARLINK-5708,2023-015X,2026-06-20T05:33:38.984544,15.27576228,.00016595,43.0044,109.6888,261.3571,98.7093,0,U,55470,999,18640,.4082844E-5,-.15E-5,0
STARLINK-5711,2023-015Y,2026-06-20T05:00:20.380608,15.27576815,.00010788,43.0060,109.5090,280.1035,79.9695,0,U,55471,999,18640,.15322829E-4,.16E-5,0
STARLINK-5705,2023-015Z,2026-06-20T04:02:42.877248,15.27576087,.00009424,43.0021,103.0421,264.5216,95.5528,0,U,55472,999,18647,.22427916E-4,.355E-5,0
STARLINK-5689,2023-015AB,2026-06-20T05:31:48.544608,15.27565139,.00004983,42.9996,120.9690,244.1887,115.8913,0,U,55474,999,18627,-.25585717E-4,-.965E-5,0
STARLINK-5650,2023-015AC,2026-06-20T05:44:45.227040,15.27575396,.00014057,43.0026,109.7430,265.8276,94.2415,0,U,55475,999,18640,.6293151E-5,-.89E-6,0
STARLINK-5685,2023-015AE,2026-06-19T23:51:28.987200,15.27578278,.00012297,43.0047,103.4572,275.3940,84.6772,0,U,55477,999,18645,.33657075E-4,.664E-5,0
STARLINK-5691,2023-015AF,2026-06-20T03:35:39.645888,15.27577393,.00013281,43.0012,99.4828,265.8919,94.1781,0,U,55478,999,18651,.3042378E-4,.575E-5,0
STARLINK-5688,2023-015AG,2026-06-20T05:16:31.279008,15.27569908,.00015083,43.0047,102.5640,267.1341,92.9338,0,U,55479,999,18648,.16491082E-4,.191E-5,0
STARLINK-5690,2023-015AH,2026-06-20T06:17:48.640992,15.27576057,.0001392,43.0022,120.2726,267.5083,92.5610,0,U,55480,999,18628,.18198999E-4,.239E-5,0
STARLINK-5694,2023-015AJ,2026-06-20T05:09:34.977888,15.27585181,.00008509,43.0003,120.8611,259.9329,100.1426,0,U,55481,999,18627,-.4996912E-5,-.399E-5,0
STARLINK-5692,2023-015AL,2026-06-20T04:38:07.431648,15.27584816,.00016518,43.0042,120.6960,260.4905,99.5760,0,U,55483,999,18627,.5782338E-4,.1329E-4,0
